     2.100          NAVIGATION                              RINEX VERSION / TYPE
fic2rin                                 06/23/2016 00:05:08 PGM / RUN BY / DATE
                                                            END OF HEADER
31 16  6 22 11 59 28.0  .262634363025D-03 -.193267624127D-11  .000000000000D+00
     .240000000000D+02  .949687500000D+02  .417124517768D-08  .208860918776D+01
     .517629086971D-05  .816626113374D-02  .105611979961D-04  .515377301407D+04
     .302368000000D+06  .141561031342D-06  .507328501594D+00  .143423676491D-06
     .971266433100D+00  .180156250000D+03 -.395831040089D+00 -.771246411223D-08
    -.207508643568D-09  .100000000000D+01  .190200000000D+04  .000000000000D+00
     .240000000000D+01  .000000000000D+00 -.135041773319D-07  .240000000000D+02
     .295206000000D+06  .400000000000D+01
 3 16  6 22 11 59 44.0 -.694957561791D-04 -.329691829393D-11  .000000000000D+00
     .400000000000D+01  .247500000000D+02  .483305845914D-08 -.233595070735D+01
     .119395554066D-05  .216794316657D-03  .598095357418D-05  .515367102051D+04
     .302384000000D+06  .335276126862D-07 -.161933561951D+01  .223517417908D-07
     .958830742898D+00  .258125000000D+03 -.165808348156D+01 -.813748181592D-08
     .549665752928D-09  .100000000000D+01  .190200000000D+04  .000000000000D+00
     .240000000000D+01  .000000000000D+00  .186264514923D-08  .400000000000D+01
     .295206000000D+06  .400000000000D+01
 4 16  6 22 11 59 44.0 -.258120708168D-03 -.454747350886D-12  .000000000000D+00
     .100000000000D+01  .699375000000D+02  .563952062296D-08 -.146046488268D+00
     .377371907234D-05  .851135759149D-02  .204704701900D-05  .515365054512D+04
     .302384000000D+06  .298023223877D-07  .154522349912D+01  .931322574615D-07
     .983017395717D+00  .347875000000D+03  .898431498707D+00 -.834856203683D-08
     .735744932444D-10  .100000000000D+01  .190200000000D+04  .000000000000D+00
     .240000000000D+01  .630000000000D+02 -.195577740669D-07  .100000000000D+01
     .295206000000D+06  .400000000000D+01
10 16  6 22 11 59 44.0 -.507798977196D-04 -.795807864051D-11  .000000000000D+00
     .130000000000D+02  .278125000000D+02  .483770150969D-08  .611615201851D+00
     .141002237797D-05  .158107955940D-02  .611692667007D-05  .515367412186D+04
     .302384000000D+06 -.111758708954D-07 -.162332367902D+01  .838190317154D-07
     .959067296751D+00  .262468750000D+03 -.271844687317D+01 -.811569519414D-08
     .509306928964D-09  .100000000000D+01  .190200000000D+04  .000000000000D+00
     .240000000000D+01  .000000000000D+00  .232830643654D-08  .130000000000D+02
     .295206000000D+06  .400000000000D+01
 1 16  6 22 12  0  0.0  .244658440351D-04  .125055521494D-11  .000000000000D+00
     .350000000000D+02 -.688437500000D+02  .394016412365D-08  .295395300075D+01
    -.346824526787D-05  .559132511262D-02  .124033540487D-04  .515365059090D+04
     .302400000000D+06  .000000000000D+00 -.266081713479D+01 -.298023223877D-07
     .964893163193D+00  .141687500000D+03  .476389179842D+00 -.760567394971D-08
     .393587823084D-09  .100000000000D+01  .190200000000D+04  .000000000000D+00
     .240000000000D+01  .000000000000D+00  .512227416039D-08  .350000000000D+02
     .295206000000D+06  .400000000000D+01
 2 16  6 22 12  0  0.0  .583671499044D-03 -.261479726760D-11  .000000000000D+00
     .940000000000D+02 -.742187500000D+02  .431375111362D-08 -.295848259597D+01
    -.377371907234D-05  .157899969490D-01  .110249966383D-04  .515358889008D+04
     .302400000000D+06  .106170773506D-06 -.270688593776D+01 -.150874257088D-06
     .943696081484D+00  .154718750000D+03 -.210798434251D+01 -.757531554230D-08
     .348943106310D-09  .100000000000D+01  .190200000000D+04  .000000000000D+00
     .240000000000D+01  .000000000000D+00 -.200234353542D-07  .940000000000D+02
     .295206000000D+06  .400000000000D+01
 5 16  6 22 12  0  0.0 -.110924243927D-03  .295585778076D-11  .000000000000D+00
     .300000000000D+02  .246250000000D+02  .508449750402D-08 -.475660295538D+00
     .150874257088D-05  .463922705967D-02  .609457492828D-05  .515381085587D+04
     .302400000000D+06  .447034835815D-07 -.163158867755D+01  .186264514923D-08
     .945898292529D+00  .251187500000D+03  .455832307657D+00 -.831820362943D-08
     .523236080597D-09  .100000000000D+01  .190200000000D+04  .000000000000D+00
     .240000000000D+01  .000000000000D+00 -.107102096081D-07  .300000000000D+02
     .295206000000D+06  .400000000000D+01
 6 16  6 22 12  0  0.0  .208328478038D-03  .534328137292D-11  .000000000000D+00
     .930000000000D+02 -.645937500000D+02  .396837958465D-08 -.306444597882D+01
    -.322982668877D-05  .392973423004D-03  .114813446999D-04  .515372031784D+04
     .302400000000D+06 -.409781932831D-07 -.266923877674D+01 -.670552253723D-07
     .964723805556D+00  .162187500000D+03 -.136307172013D+01 -.762210320548D-08
     .296083761649D-09  .100000000000D+01  .190200000000D+04  .000000000000D+00
     .240000000000D+01  .000000000000D+00  .419095158577D-08  .930000000000D+02
     .295206000000D+06  .400000000000D+01
 7 16  6 22 12  0  0.0  .446840189397D-03 -.238742359215D-11  .000000000000D+00
     .400000000000D+02  .980312500000D+02  .422910473062D-08  .223260592006D+01
     .508502125740D-05  .962382543366D-02  .117868185043D-04  .515365210533D+04
     .302400000000D+06 -.279396772385D-06  .497866506916D+00 -.372529029846D-07
     .966455625533D+00  .157062500000D+03 -.266934228843D+01 -.773925094229D-08
    -.114290474943D-09  .100000000000D+01  .190200000000D+04  .000000000000D+00
     .240000000000D+01  .000000000000D+00 -.111758708954D-07  .400000000000D+02
     .295206000000D+06  .400000000000D+01
 8 16  6 22 12  0  0.0 -.399895943701D-04 -.147792889038D-11  .000000000000D+00
     .760000000000D+02 -.118625000000D+03  .440839791318D-08 -.371327203223D+00
    -.606477260590D-05  .170324544888D-02  .401586294174D-05  .515371084023D+04
     .302400000000D+06 -.106170773506D-06  .256217317581D+01 -.372529029846D-08
     .963676256733D+00  .305593750000D+03 -.106594213023D+01 -.824070040111D-08
    -.395016454021D-09  .100000000000D+01  .190200000000D+04  .000000000000D+00
     .240000000000D+01  .000000000000D+00  .465661287308D-08  .760000000000D+02
     .295206000000D+06  .400000000000D+01
 9 16  6 22 12  0  0.0  .153454020619D-03  .727595761418D-11  .000000000000D+00
     .970000000000D+02 -.217812500000D+02  .501092301077D-08 -.160734938748D+01
    -.116229057312D-05  .529621960595D-03  .756233930588D-05  .515355129051D+04
     .302400000000D+06  .931322574615D-08 -.579844244817D+00 -.130385160446D-07
     .954921730700D+00  .236406250000D+03  .234965228104D+01 -.812783855710D-08
    -.441804117201D-09  .100000000000D+01  .190200000000D+04  .000000000000D+00
     .240000000000D+01  .000000000000D+00  .139698386192D-08  .970000000000D+02
     .295206000000D+06  .400000000000D+01
11 16  6 22 12  0  0.0 -.652793329209D-03 -.238742359215D-11  .000000000000D+00
     .220000000000D+02 -.135125000000D+03  .539308178636D-08  .234931848117D+01
    -.686943531036D-05  .164892533794D-01  .978633761406D-05  .515367544556D+04
     .302400000000D+06  .268220901489D-06 -.303945794386D+01 -.223517417908D-07
     .897366096431D+00  .152625000000D+03  .153406675627D+01 -.815819696451D-08
    -.321441960776D-10  .100000000000D+01  .190200000000D+04  .000000000000D+00
     .240000000000D+01  .000000000000D+00 -.121071934700D-07  .220000000000D+02
     .295206000000D+06  .400000000000D+01
12 16  6 22 12  0  0.0  .383418984711D-03  .102318153949D-11  .000000000000D+00
     .460000000000D+02  .687812500000D+02  .406981238116D-08  .165030955829D+01
     .346265733242D-05  .614181836136D-02  .264495611191D-05  .515371118164D+04
     .302400000000D+06 -.180676579475D-06  .157471567597D+01  .745058059692D-07
     .990028556423D+00  .345187500000D+03  .769305000984D+00 -.808712257540D-08
     .764317551180D-10  .100000000000D+01  .190200000000D+04  .000000000000D+00
     .240000000000D+01  .000000000000D+00 -.125728547573D-07  .460000000000D+02
     .295206000000D+06  .400000000000D+01
13 16  6 22 12  0  0.0 -.263913534582D-04 -.250111042988D-11  .000000000000D+00
     .490000000000D+02 -.187500000000D+02  .450911639423D-08 -.312449064093D+01
    -.104308128357D-05  .424243137240D-02  .803358852863D-05  .515367681885D+04
     .302400000000D+06  .465661287308D-07 -.458769817902D+00  .428408384323D-07
     .971403169127D+00  .228531250000D+03  .200213088625D+01 -.783032616451D-08
    -.470376735936D-09  .100000000000D+01  .190200000000D+04  .000000000000D+00
     .240000000000D+01  .000000000000D+00 -.111758708954D-07  .490000000000D+02
     .295206000000D+06  .400000000000D+01
14 16  6 22 12  0  0.0 -.207037664950D-04 -.204636307899D-11  .000000000000D+00
     .160000000000D+02 -.175625000000D+02  .468412368398D-08 -.148731266834D+01
    -.718981027603D-06  .878204230685D-02  .787340104580D-05  .515402283478D+04
     .302400000000D+06  .128522515297D-06 -.495963190515D+00  .178813934326D-06
     .963859945116D+00  .226968750000D+03 -.196261257839D+01 -.789711466081D-08
    -.430375069706D-09  .100000000000D+01  .190200000000D+04  .000000000000D+00
     .240000000000D+01  .000000000000D+00 -.931322574615D-08  .160000000000D+02
     .295206000000D+06  .400000000000D+01
15 16  6 22 12  0  0.0 -.316343270242D-03 -.159161572810D-11  .000000000000D+00
     .840000000000D+02 -.290937500000D+02  .555773150183D-08 -.202243998400D+01
    -.183656811714D-05  .817228574306D-02  .650808215141D-05  .515360737991D+04
     .302400000000D+06  .102445483208D-06 -.633019293783D+00 -.124797224998D-06
     .930586948647D+00  .236156250000D+03  .483705559387D+00 -.842249368781D-08
    -.280011663610D-09  .100000000000D+01  .190200000000D+04  .000000000000D+00
     .240000000000D+01  .000000000000D+00 -.107102096081D-07  .840000000000D+02
     .295206000000D+06  .400000000000D+01
